[{"OBJECT_NAME":"KUIPER-00043","OBJECT_ID":"2025-134E","EPOCH":"2026-03-09T22:00:01.999584","MEAN_MOTION":14.81364688,"ECCENTRICITY":0.00016525,"INCLINATION":51.9007,"RA_OF_ASC_NODE":232.0418,"ARG_OF_PERICENTER":110.2008,"MEAN_ANOMALY":148.1192,"EPHEMERIS_TYPE":0,"CLASSIFICATION_TYPE":"U","NORAD_CAT_ID":64504,"ELEMENT_SET_NO":999,"REV_AT_EPOCH":516,"BSTAR":0.0028433581,"MEAN_MOTION_DOT":0.0002228,"MEAN_MOTION_DDOT":0},{"OBJECT_NAME":"GEESAT-6 06","OBJECT_ID":"2025-214G","EPOCH":"2026-03-09T23:14:28.648896","MEAN_MOTION":14.82777466,"ECCENTRICITY":0.00100835,"INCLINATION":49.9903,"RA_OF_ASC_NODE":45.5054,"ARG_OF_PERICENTER":219.3637,"MEAN_ANOMALY":140.6569,"EPHEMERIS_TYPE":0,"CLASSIFICATION_TYPE":"U","NORAD_CAT_ID":65718,"ELEMENT_SET_NO":999,"REV_AT_EPOCH":2481,"BSTAR":0.00035226241,"MEAN_MOTION_DOT":2.655e-5,"MEAN_MOTION_DDOT":0}]
